{
  "type": "FeatureCollection",
  "features": [
    {
      "type": "Feature",
      "properties": {
        "norad_id": 33844,
        "name": "COSMOS 2251 DEB",
        "group": "cosmos-2251-debris",
        "lat": -1.142754783468025,
        "lon": -145.0873028672989,
        "alt_km": 802.5453941078868,
        "timestamp": "2025-12-22T16:55:17.857594+00:00",
        "meta_object_name": "COSMOS 2251 DEB",
        "meta_object_id": "1993-036CM",
        "meta_epoch": "2025-12-21T09:59:44.729952",
        "meta_mean_motion": 14.3373237,
        "meta_eccentricity": 0.00471142,
        "meta_inclination": 74.0666,
        "meta_ra_of_asc_node": 36.9378,
        "meta_arg_of_pericenter": 56.0752,
        "meta_mean_anomaly": 316.3274,
        "meta_ephemeris_type": 0,
        "meta_classification_type": "U",
        "meta_norad_cat_id": 33844,
        "meta_element_set_no": 999,
        "meta_rev_at_epoch": 87850,
        "meta_bstar": 0.00027971479,
        "meta_mean_motion_dot": 7.61e-06,
        "meta_mean_motion_ddot": 0,
        "tle_line1": "1 33844U 93036CM  25355.41648993  .00000761  00000+0  27971-3 0  9999",
        "tle_line2": "2 33844  74.0666  36.9378 0047114  56.0752 316.3274 14.33732370878508"
      },
      "geometry": {
        "type": "Point",
        "coordinates": [
          -145.0873028672989,
          -1.142754783468025
        ]
      }
    },
    {
      "type": "Feature",
      "properties": {
        "norad_id": 33848,
        "name": "COSMOS 2251 DEB",
        "group": "cosmos-2251-debris",
        "lat": 10.834077432225952,
        "lon": -17.75813386161587,
        "alt_km": 718.2145834055518,
        "timestamp": "2025-12-22T16:55:17.857604+00:00",
        "meta_object_name": "COSMOS 2251 DEB",
        "meta_object_id": "1993-036CR",
        "meta_epoch": "2025-12-21T16:45:18.961632",
        "meta_mean_motion": 14.44117482,
        "meta_eccentricity": 0.00416668,
        "meta_inclination": 74.0317,
        "meta_ra_of_asc_node": 340.9734,
        "meta_arg_of_pericenter": 34.1193,
        "meta_mean_anomaly": 144.6848,
        "meta_ephemeris_type": 0,
        "meta_classification_type": "U",
        "meta_norad_cat_id": 33848,
        "meta_element_set_no": 999,
        "meta_rev_at_epoch": 87960,
        "meta_bstar": 0.00087373175,
        "meta_mean_motion_dot": 3e-05,
        "meta_mean_motion_ddot": 0,
        "tle_line1": "1 33848U 93036CR  25355.69813613  .00003000  00000+0  87373-3 0  9997",
        "tle_line2": "2 33848  74.0317 340.9734 0041666  34.1193 144.6848 14.44117482879605"
      },
      "geometry": {
        "type": "Point",
        "coordinates": [
          -17.75813386161587,
          10.834077432225952
        ]
      }
    },
    {
      "type": "Feature",
      "properties": {
        "norad_id": 33892,
        "name": "COSMOS 2251 DEB",
        "group": "cosmos-2251-debris",
        "lat": -73.45968502698474,
        "lon": 5.714132741273203,
        "alt_km": 896.8075041760476,
        "timestamp": "2025-12-22T16:55:17.857614+00:00",
        "meta_object_name": "COSMOS 2251 DEB",
        "meta_object_id": "1993-036CV",
        "meta_epoch": "2025-12-22T07:28:39.074304",
        "meta_mean_motion": 14.23368996,
        "meta_eccentricity": 0.01122855,
        "meta_inclination": 73.8025,
        "meta_ra_of_asc_node": 84.5961,
        "meta_arg_of_pericenter": 113.9582,
        "meta_mean_anomaly": 303.3766,
        "meta_ephemeris_type": 0,
        "meta_classification_type": "U",
        "meta_norad_cat_id": 33892,
        "meta_element_set_no": 999,
        "meta_rev_at_epoch": 87091,
        "meta_bstar": 0.0005803238,
        "meta_mean_motion_dot": 1.379e-05,
        "meta_mean_motion_ddot": 0,
        "tle_line1": "1 33892U 93036CV  25356.31156336  .00001379  00000+0  58032-3 0  9995",
        "tle_line2": "2 33892  73.8025  84.5961 0112285 113.9582 303.3766 14.23368996870917"
      },
      "geometry": {
        "type": "Point",
        "coordinates": [
          5.714132741273203,
          -73.45968502698474
        ]
      }
    },
    {
      "type": "Feature",
      "properties": {
        "norad_id": 33894,
        "name": "COSMOS 2251 DEB",
        "group": "cosmos-2251-debris",
        "lat": 55.048863941117894,
        "lon": 129.02533662186042,
        "alt_km": 1442.563337632797,
        "timestamp": "2025-12-22T16:55:17.857625+00:00",
        "meta_object_name": "COSMOS 2251 DEB",
        "meta_object_id": "1993-036CX",
        "meta_epoch": "2025-12-21T16:37:48.062496",
        "meta_mean_motion": 13.21322128,
        "meta_eccentricity": 0.05789659,
        "meta_inclination": 73.7665,
        "meta_ra_of_asc_node": 335.2246,
        "meta_arg_of_pericenter": 253.4651,
        "meta_mean_anomaly": 100.2107,
        "meta_ephemeris_type": 0,
        "meta_classification_type": "U",
        "meta_norad_cat_id": 33894,
        "meta_element_set_no": 999,
        "meta_rev_at_epoch": 80826,
        "meta_bstar": 0.00065478931,
        "meta_mean_motion_dot": 6.27e-06,
        "meta_mean_motion_ddot": 0,
        "tle_line1": "1 33894U 93036CX  25355.69291739  .00000627  00000+0  65479-3 0  9992",
        "tle_line2": "2 33894  73.7665 335.2246 0578965 253.4651 100.2107 13.21322128808264"
      },
      "geometry": {
        "type": "Point",
        "coordinates": [
          129.02533662186042,
          55.048863941117894
        ]
      }
    },
    {
      "type": "Feature",
      "properties": {
        "norad_id": 33896,
        "name": "COSMOS 2251 DEB",
        "group": "cosmos-2251-debris",
        "lat": -6.408914250872361,
        "lon": -39.53327663422914,
        "alt_km": 885.0877201615003,
        "timestamp": "2025-12-22T16:55:17.857636+00:00",
        "meta_object_name": "COSMOS 2251 DEB",
        "meta_object_id": "1993-036CZ",
        "meta_epoch": "2025-12-22T03:21:01.521216",
        "meta_mean_motion": 14.19058881,
        "meta_eccentricity": 0.0126973,
        "meta_inclination": 73.7663,
        "meta_ra_of_asc_node": 139.6176,
        "meta_arg_of_pericenter": 313.8005,
        "meta_mean_anomaly": 226.3125,
        "meta_ephemeris_type": 0,
        "meta_classification_type": "U",
        "meta_norad_cat_id": 33896,
        "meta_element_set_no": 999,
        "meta_rev_at_epoch": 86873,
        "meta_bstar": 0.00044902752,
        "meta_mean_motion_dot": 9.89e-06,
        "meta_mean_motion_ddot": 0,
        "tle_line1": "1 33896U 93036CZ  25356.13960094  .00000989  00000+0  44903-3 0  9991",
        "tle_line2": "2 33896  73.7663 139.6176 0126973 313.8005 226.3125 14.19058881868732"
      },
      "geometry": {
        "type": "Point",
        "coordinates": [
          -39.53327663422914,
          -6.408914250872361
        ]
      }
    },
    {
      "type": "Feature",
      "properties": {
        "norad_id": 33899,
        "name": "COSMOS 2251 DEB",
        "group": "cosmos-2251-debris",
        "lat": -71.68983281964049,
        "lon": 6.921738137715533,
        "alt_km": 731.305985984467,
        "timestamp": "2025-12-22T16:55:17.857647+00:00",
        "meta_object_name": "COSMOS 2251 DEB",
        "meta_object_id": "1993-036DC",
        "meta_epoch": "2025-12-21T15:41:44.336832",
        "meta_mean_motion": 14.61258772,
        "meta_eccentricity": 0.005627,
        "meta_inclination": 74.0538,
        "meta_ra_of_asc_node": 68.6999,
        "meta_arg_of_pericenter": 128.776,
        "meta_mean_anomaly": 23.0619,
        "meta_ephemeris_type": 0,
        "meta_classification_type": "U",
        "meta_norad_cat_id": 33899,
        "meta_element_set_no": 999,
        "meta_rev_at_epoch": 88969,
        "meta_bstar": 0.00059836,
        "meta_mean_motion_dot": 2.989e-05,
        "meta_mean_motion_ddot": 0,
        "tle_line1": "1 33899U 93036DC  25355.65398538  .00002989  00000+0  59836-3 0  9991",
        "tle_line2": "2 33899  74.0538  68.6999 0056270 128.7760  23.0619 14.61258772889693"
      },
      "geometry": {
        "type": "Point",
        "coordinates": [
          6.921738137715533,
          -71.68983281964049
        ]
      }
    },
    {
      "type": "Feature",
      "properties": {
        "norad_id": 33900,
        "name": "COSMOS 2251 DEB",
        "group": "cosmos-2251-debris",
        "lat": -30.727434697748958,
        "lon": 170.68367600968742,
        "alt_km": 699.274838387998,
        "timestamp": "2025-12-22T16:55:17.857657+00:00",
        "meta_object_name": "COSMOS 2251 DEB",
        "meta_object_id": "1993-036DD",
        "meta_epoch": "2025-12-22T06:26:10.951584",
        "meta_mean_motion": 14.5837903,
        "meta_eccentricity": 0.00464405,
        "meta_inclination": 74.0183,
        "meta_ra_of_asc_node": 341.7076,
        "meta_arg_of_pericenter": 131.0481,
        "meta_mean_anomaly": 307.6485,
        "meta_ephemeris_type": 0,
        "meta_classification_type": "U",
        "meta_norad_cat_id": 33900,
        "meta_element_set_no": 999,
        "meta_rev_at_epoch": 89175,
        "meta_bstar": 0.00035300297,
        "meta_mean_motion_dot": 1.63e-05,
        "meta_mean_motion_ddot": 0,
        "tle_line1": "1 33900U 93036DD  25356.26818231  .00001630  00000+0  35300-3 0  9991",
        "tle_line2": "2 33900  74.0183 341.7076 0046440 131.0481 307.6485 14.58379030891757"
      },
      "geometry": {
        "type": "Point",
        "coordinates": [
          170.68367600968742,
          -30.727434697748958
        ]
      }
    }
  ]
}